start=new Date('2023-04-20T00:00:00.000Z').valueOf();
sats=[{"SEMIMAJOR_AXIS":"6917.871","ELEMENT_SET_NO":"999","MEAN_ANOMALY":"267.4606","CENTER_NAME":"EARTH","TLE_LINE1":"1 50206U 21125BC  23109.72746652  .00002288  00000-0  16176-3 0  9992","GP_ID":"230394664","OBJECT_TYPE":"PAYLOAD","NORAD_CAT_ID":"50206","TLE_LINE2":"2 50206  53.2164 295.0272 0001308  92.6536 267.4606 15.08843010 75391","MEAN_MOTION_DOT":"0.00002288","MEAN_MOTION_DDOT":"0.0000000000000","LAUNCH_DATE":"2021-12-18","APOAPSIS":"540.641","SITE":"AFWTR","MEAN_MOTION":"15.08843010","PERIAPSIS":"538.831","EPHEMERIS_TYPE":"0","RCS_SIZE":"LARGE","OBJECT_ID":"2021-125BC","CLASSIFICATION_TYPE":"U","PERIOD":"95.437","INCLINATION":"53.2164","DECAY_DATE":null,"REV_AT_EPOCH":"7539","TIME_SYSTEM":"UTC","ECCENTRICITY":"0.00013080","MEAN_ELEMENT_THEORY":"SGP4","BSTAR":"0.00016176000000","OBJECT_NAME":"STARLINK-3258","RA_OF_ASC_NODE":"295.0272","ARG_OF_PERICENTER":"92.6536","COUNTRY_CODE":"US","REF_FRAME":"TEME","EPOCH":"2023-04-19T17:27:33.107328","FILE":"3890520"},{"BSTAR":"0.00032594000000","OBJECT_NAME":"STARLINK-3262","REV_AT_EPOCH":"7546","MEAN_ELEMENT_THEORY":"SGP4","TIME_SYSTEM":"UTC","ECCENTRICITY":"0.00010010","PERIOD":"95.437","OBJECT_ID":"2021-125BD","CLASSIFICATION_TYPE":"U","INCLINATION":"53.2158","DECAY_DATE":null,"FILE":"3890520","EPOCH":"2023-04-19T17:32:50.969472","ARG_OF_PERICENTER":"81.5547","COUNTRY_CODE":"US","REF_FRAME":"TEME","RA_OF_ASC_NODE":"295.0116","NORAD_CAT_ID":"50207","OBJECT_TYPE":"PAYLOAD","GP_ID":"230393412","TLE_LINE1":"1 50207U 21125BD  23109.73114548  .00004905  00000-0  32594-3 0  9997","CENTER_NAME":"EARTH","SEMIMAJOR_AXIS":"6917.853","MEAN_ANOMALY":"278.5559","ELEMENT_SET_NO":"999","RCS_SIZE":"LARGE","EPHEMERIS_TYPE":"0","PERIAPSIS":"539.026","SITE":"AFWTR","MEAN_MOTION":"15.08848810","LAUNCH_DATE":"2021-12-18","APOAPSIS":"540.411","MEAN_MOTION_DOT":"0.00004905","TLE_LINE2":"2 50207  53.2158 295.0116 0001001  81.5547 278.5559 15.08848810 75462","MEAN_MOTION_DDOT":"0.0000000000000"},{"APOAPSIS":"540.647","LAUNCH_DATE":"2022-01-06","MEAN_MOTION_DDOT":"0.0000000000000","MEAN_MOTION_DOT":"0.00002003","TLE_LINE2":"2 50803  53.2145 225.6783 0001299  78.6655 281.4483 15.08839133 71121","EPHEMERIS_TYPE":"0","RCS_SIZE":"LARGE","PERIAPSIS":"538.849","MEAN_MOTION":"15.08839133","SITE":"AFETR","CENTER_NAME":"EARTH","MEAN_ANOMALY":"281.4483","ELEMENT_SET_NO":"999","SEMIMAJOR_AXIS":"6917.883","NORAD_CAT_ID":"50803","OBJECT_TYPE":"PAYLOAD","GP_ID":"230395680","TLE_LINE1":"1 50803U 22001A   23109.58302862  .00002003  00000-0  14393-3 0  9998","REF_FRAME":"TEME","COUNTRY_CODE":"US","ARG_OF_PERICENTER":"78.6655","RA_OF_ASC_NODE":"225.6783","FILE":"3890520","EPOCH":"2023-04-19T13:59:33.672768","MEAN_ELEMENT_THEORY":"SGP4","ECCENTRICITY":"0.00012990","TIME_SYSTEM":"UTC","REV_AT_EPOCH":"7112","DECAY_DATE":null,"INCLINATION":"53.2145","PERIOD":"95.438","OBJECT_ID":"2022-001A","CLASSIFICATION_TYPE":"U","OBJECT_NAME":"STARLINK-3321","BSTAR":"0.00014393000000"},{"ARG_OF_PERICENTER":"107.2450","COUNTRY_CODE":"US","REF_FRAME":"TEME","RA_OF_ASC_NODE":"214.6276","FILE":"3890520","EPOCH":"2023-04-19T19:34:42.907296","REV_AT_EPOCH":"7129","MEAN_ELEMENT_THEORY":"SGP4","ECCENTRICITY":"0.00010740","TIME_SYSTEM":"UTC","PERIOD":"95.436","OBJECT_ID":"2022-001B","CLASSIFICATION_TYPE":"U","DECAY_DATE":null,"INCLINATION":"53.2146","BSTAR":"0.00040026000000","OBJECT_NAME":"STARLINK-3323","LAUNCH_DATE":"2022-01-06","APOAPSIS":"540.429","MEAN_MOTION_DOT":"0.00006091","TLE_LINE2":"2 50804  53.2146 214.6276 0001074 107.2450 252.8660 15.08859272 71294","MEAN_MOTION_DDOT":"0.0000000000000","EPHEMERIS_TYPE":"0","RCS_SIZE":"LARGE","PERIAPSIS":"538.944","SITE":"AFETR","MEAN_MOTION":"15.08859272","CENTER_NAME":"EARTH","SEMIMAJOR_AXIS":"6917.821","MEAN_ANOMALY":"252.8660","ELEMENT_SET_NO":"999","NORAD_CAT_ID":"50804","OBJECT_TYPE":"PAYLOAD","TLE_LINE1":"1 50804U 22001B   23109.81577439  .00006091  00000-0  40026-3 0  9992","GP_ID":"230396431"},{"RA_OF_ASC_NODE":"215.5406","REF_FRAME":"TEME","COUNTRY_CODE":"US","ARG_OF_PERICENTER":"79.9815","EPOCH":"2023-04-19T14:43:16.279104","FILE":"3890520","DECAY_DATE":null,"INCLINATION":"53.2171","CLASSIFICATION_TYPE":"U","OBJECT_ID":"2022-001C","PERIOD":"95.437","ECCENTRICITY":"0.00013780","TIME_SYSTEM":"UTC","MEAN_ELEMENT_THEORY":"SGP4","REV_AT_EPOCH":"7126","OBJECT_NAME":"STARLINK-3333","BSTAR":"0.00048680000000","MEAN_MOTION_DDOT":"0.0000000000000","TLE_LINE2":"2 50805  53.2171 215.5406 0001378  79.9815 280.1333 15.08849278 71268","MEAN_MOTION_DOT":"0.00007470","APOAPSIS":"540.670","LAUNCH_DATE":"2022-01-06","MEAN_MOTION":"15.08849278","SITE":"AFETR","PERIAPSIS":"538.764","RCS_SIZE":"LARGE","EPHEMERIS_TYPE":"0","ELEMENT_SET_NO":"999","MEAN_ANOMALY":"280.1333","SEMIMAJOR_AXIS":"6917.852","CENTER_NAME":"EARTH","GP_ID":"230395179","TLE_LINE1":"1 50805U 22001C   23109.61338286  .00007470  00000-0  48680-3 0  9992","OBJECT_TYPE":"PAYLOAD","NORAD_CAT_ID":"50805"},{"CENTER_NAME":"EARTH","SEMIMAJOR_AXIS":"6917.860","ELEMENT_SET_NO":"999","MEAN_ANOMALY":"270.4675","NORAD_CAT_ID":"50806","TLE_LINE1":"1 50806U 22001D   23109.60970272  .00003666  00000-0  24827-3 0  9999","GP_ID":"230394930","OBJECT_TYPE":"PAYLOAD","LAUNCH_DATE":"2022-01-06","APOAPSIS":"540.738","MEAN_MOTION_DOT":"0.00003666","TLE_LINE2":"2 50806  53.2168 215.5595 0001464  89.6485 270.4675 15.08846612 71261","MEAN_MOTION_DDOT":"0.0000000000000","PERIAPSIS":"538.712","RCS_SIZE":"LARGE","EPHEMERIS_TYPE":"0","SITE":"AFETR","MEAN_MOTION":"15.08846612","REV_AT_EPOCH":"7126","TIME_SYSTEM":"UTC","ECCENTRICITY":"0.00014640","MEAN_ELEMENT_THEORY":"SGP4","CLASSIFICATION_TYPE":"U","OBJECT_ID":"2022-001D","PERIOD":"95.437","DECAY_DATE":null,"INCLINATION":"53.2168","BSTAR":"0.00024827000000","OBJECT_NAME":"STARLINK-3335","ARG_OF_PERICENTER":"89.6485","COUNTRY_CODE":"US","REF_FRAME":"TEME","RA_OF_ASC_NODE":"215.5595","EPOCH":"2023-04-19T14:37:58.315008","FILE":"3890520"},{"CENTER_NAME":"EARTH","MEAN_ANOMALY":"293.7108","ELEMENT_SET_NO":"999","SEMIMAJOR_AXIS":"6917.849","NORAD_CAT_ID":"50807","OBJECT_TYPE":"PAYLOAD","GP_ID":"230396181","TLE_LINE1":"1 50807U 22001E   23109.72746773  .00024056  00000-0  15240-2 0  9994","APOAPSIS":"540.457","LAUNCH_DATE":"2022-01-06","MEAN_MOTION_DDOT":"0.0000000000000","TLE_LINE2":"2 50807  53.2174 215.0280 0001073  66.3996 293.7108 15.08850111 71280","MEAN_MOTION_DOT":"0.00024056","EPHEMERIS_TYPE":"0","RCS_SIZE":"LARGE","PERIAPSIS":"538.972","MEAN_MOTION":"15.08850111","SITE":"AFETR","MEAN_ELEMENT_THEORY":"SGP4","ECCENTRICITY":"0.00010730","TIME_SYSTEM":"UTC","REV_AT_EPOCH":"7128","DECAY_DATE":null,"INCLINATION":"53.2174","PERIOD":"95.437","OBJECT_ID":"2022-001E","CLASSIFICATION_TYPE":"U","OBJECT_NAME":"STARLINK-3353","BSTAR":"0.00152400000000","REF_FRAME":"TEME","COUNTRY_CODE":"US","ARG_OF_PERICENTER":"66.3996","RA_OF_ASC_NODE":"215.0280","FILE":"3890520","EPOCH":"2023-04-19T17:27:33.211872"},{"OBJECT_NAME":"STARLINK-3355","BSTAR":"0.00082501000000","INCLINATION":"53.2152","DECAY_DATE":null,"PERIOD":"95.436","CLASSIFICATION_TYPE":"U","OBJECT_ID":"2022-001F","MEAN_ELEMENT_THEORY":"SGP4","TIME_SYSTEM":"UTC","ECCENTRICITY":"0.00009730","REV_AT_EPOCH":"7129","FILE":"3890520","EPOCH":"2023-04-19T19:13:31.147680","RA_OF_ASC_NODE":"214.6962","REF_FRAME":"TEME","ARG_OF_PERICENTER":"107.7421","COUNTRY_CODE":"US","OBJECT_TYPE":"PAYLOAD","TLE_LINE1":"1 50808U 22001F   23109.80105495  .00012876  00000-0  82501-3 0  9996","GP_ID":"230395931","NORAD_CAT_ID":"50808","MEAN_ANOMALY":"252.3677","ELEMENT_SET_NO":"999","SEMIMAJOR_AXIS":"6917.801","CENTER_NAME":"EARTH","MEAN_MOTION":"15.08865874","SITE":"AFETR","RCS_SIZE":"LARGE","EPHEMERIS_TYPE":"0","PERIAPSIS":"538.993","MEAN_MOTION_DDOT":"0.0000000000000","TLE_LINE2":"2 50808  53.2152 214.6962 0000973 107.7421 252.3677 15.08865874 71295","MEAN_MOTION_DOT":"0.00012876","APOAPSIS":"540.339","LAUNCH_DATE":"2022-01-06"},{"RA_OF_ASC_NODE":"215.5773","ARG_OF_PERICENTER":"84.8145","COUNTRY_CODE":"US","REF_FRAME":"TEME","EPOCH":"2023-04-19T14:32:40.246368","FILE":"3890520","CLASSIFICATION_TYPE":"U","OBJECT_ID":"2022-001G","PERIOD":"95.437","INCLINATION":"53.2176","DECAY_DATE":null,"REV_AT_EPOCH":"7126","ECCENTRICITY":"0.00012920","TIME_SYSTEM":"UTC","MEAN_ELEMENT_THEORY":"SGP4","BSTAR":"0.00024514000000","OBJECT_NAME":"STARLINK-3232","MEAN_MOTION_DOT":"0.00003616","TLE_LINE2":"2 50809  53.2176 215.5773 0001292  84.8145 275.2995 15.08846871 71265","MEAN_MOTION_DDOT":"0.0000000000000","LAUNCH_DATE":"2022-01-06","APOAPSIS":"540.618","SITE":"AFETR","MEAN_MOTION":"15.08846871","PERIAPSIS":"538.831","RCS_SIZE":"LARGE","EPHEMERIS_TYPE":"0","SEMIMAJOR_AXIS":"6917.859","ELEMENT_SET_NO":"999","MEAN_ANOMALY":"275.2995","CENTER_NAME":"EARTH","GP_ID":"230394680","TLE_LINE1":"1 50809U 22001G   23109.60602137  .00003616  00000-0  24514-3 0  9992","OBJECT_TYPE":"PAYLOAD","NORAD_CAT_ID":"50809"},{"BSTAR":"0.00047958000000","OBJECT_NAME":"STARLINK-3348","REV_AT_EPOCH":"7128","ECCENTRICITY":"0.00012270","TIME_SYSTEM":"UTC","MEAN_ELEMENT_THEORY":"SGP4","OBJECT_ID":"2022-001H","CLASSIFICATION_TYPE":"U","PERIOD":"95.436","DECAY_DATE":null,"INCLINATION":"53.2170","EPOCH":"2023-04-19T17:32:50.389728","FILE":"3890520","COUNTRY_CODE":"US","ARG_OF_PERICENTER":"89.1881","REF_FRAME":"TEME","RA_OF_ASC_NODE":"215.0112","NORAD_CAT_ID":"50810","GP_ID":"230395430","TLE_LINE1":"1 50810U 22001H   23109.73113877  .00007357  00000-0  47958-3 0  9999","OBJECT_TYPE":"PAYLOAD","CENTER_NAME":"EARTH","SEMIMAJOR_AXIS":"6917.825","ELEMENT_SET_NO":"999","MEAN_ANOMALY":"270.9252","PERIAPSIS":"538.842","RCS_SIZE":"LARGE","EPHEMERIS_TYPE":"0","SITE":"AFETR","MEAN_MOTION":"15.08857985","LAUNCH_DATE":"2022-01-06","APOAPSIS":"540.539","TLE_LINE2":"2 50810  53.2170 215.0112 0001227  89.1881 270.9252 15.08857985 71284","MEAN_MOTION_DOT":"0.00007357","MEAN_MOTION_DDOT":"0.0000000000000"}];
